[{"OBJECT_NAME":"LEGION 4","OBJECT_ID":"2024-146B","EPOCH":"2026-03-09T20:57:25.515072","MEAN_MOTION":15.16207109,"ECCENTRICITY":0.00094512,"INCLINATION":45.0024,"RA_OF_ASC_NODE":294.7765,"ARG_OF_PERICENTER":105.8895,"MEAN_ANOMALY":254.3026,"EPHEMERIS_TYPE":0,"CLASSIFICATION_TYPE":"U","NORAD_CAT_ID":60453,"ELEMENT_SET_NO":999,"REV_AT_EPOCH":8580,"BSTAR":0.00030530233,"MEAN_MOTION_DOT":5.743e-5,"MEAN_MOTION_DDOT":0},{"OBJECT_NAME":"TITAN 3C TRANSTAGE DEB","OBJECT_ID":"1965-082GW","EPOCH":"2026-03-09T12:42:20.172960","MEAN_MOTION":15.14963153,"ECCENTRICITY":0.00030531,"INCLINATION":31.8551,"RA_OF_ASC_NODE":209.3641,"ARG_OF_PERICENTER":343.4922,"MEAN_ANOMALY":16.5634,"EPHEMERIS_TYPE":0,"CLASSIFICATION_TYPE":"U","NORAD_CAT_ID":1961,"ELEMENT_SET_NO":999,"REV_AT_EPOCH":22902,"BSTAR":0.00048671967,"MEAN_MOTION_DOT":9.381e-5,"MEAN_MOTION_DDOT":0}]
